SL-16 R/B               
1 25400U 98043G   26024.45832476  .00000173  00000+0  91403-4 0  9999
2 25400  98.8184 337.5287 0010507 137.9737 222.2251 14.26037935432685
SL-16 R/B               
1 25407U 98045B   26024.14490432  .00000239  00000+0  14459-3 0  9994
2 25407  71.0110 275.2515 0005149  95.2226 264.9485 14.16186175420792
ISS (ZARYA)             
1 25544U 98067A   26023.72220588  .00016677  00000+0  30360-3 0  9998
2 25544  51.6325 294.6353 0007776  51.0046 309.1634 15.49596283549364
CZ-4B R/B               
1 25732U 99025C   26024.35113901  .00000135  00000+0  85849-4 0  9997
2 25732  98.6710  69.6657 0038141 111.9880 259.3307 14.18255572381883
OKEAN-O                 
1 25860U 99039A   26024.17438030  .00001726  00000+0  23363-3 0  9996
2 25860  97.9535  84.4970 0001864  99.8120 260.3303 14.80254381427805
SL-16 R/B               
1 25861U 99039B   26023.58860492  .00001189  00000+0  15762-3 0  9999
2 25861  98.0062  82.7303 0015793  47.6102 312.6444 14.81659748430180
DELTA 2 R/B             
1 25876U 99041E   26024.40787236  .00004297  00000+0  72801-3 0  9994
2 25876  51.7624 118.1036 0502971 217.5889 138.8875 14.11621117356772
HELIOS 1B               
1 25977U 99064A   26024.45463993  .00003535  00000+0  39635-3 0  9999
2 25977  98.1731 285.3898 0001239 134.4009 225.7308 14.87495163678680
TERRA                   
1 25994U 99068A   26024.48206770  .00000896  00000+0  19200-3 0  9996
2 25994  97.9685  79.5850 0001697 356.2990 116.7282 14.60961001388628
SL-16 R/B               
1 26070U 00006B   26024.14871375  .00000221  00000+0  13649-3 0  9991
2 26070  71.0005 191.4880 0018683 251.5243 108.3850 14.15813685342252
TITAN 4B R/B            
1 26474U 00047B   26024.43039979  .00006904  00000+0  43489-3 0  9991
2 26474  67.9891 164.9270 0036852  90.7228 269.8143 15.09160093386235
ENVISAT                 
1 27386U 02009A   26024.46873556  .00000280  00000+0  10469-3 0  9997
2 27386  98.3658 339.1398 0001222  91.8449  17.4071 14.39018392252813
