CCSDS_OMM_VERS = 2.0
CREATION_DATE  = 
ORIGINATOR     = 

OBJECT_NAME    = SL-16 R/B
OBJECT_ID      = 1998-043G
CENTER_NAME    = EARTH
REF_FRAME      = TEME
TIME_SYSTEM    = UTC
MEAN_ELEMENT_THEORY = SGP/SGP4

EPOCH          = 2026-01-24T10:59:59.259264
MEAN_MOTION    = 14.26037935
ECCENTRICITY   = .0010507
INCLINATION    = 98.8184
RA_OF_ASC_NODE = 337.5287
ARG_OF_PERICENTER = 137.9737
MEAN_ANOMALY   = 222.2251

EPHEMERIS_TYPE = 0
CLASSIFICATION_TYPE = U
NORAD_CAT_ID   = 25400
ELEMENT_SET_NO = 999
REV_AT_EPOCH   = 43268
BSTAR          = .91403E-4
MEAN_MOTION_DOT = .173E-5
MEAN_MOTION_DDOT = 0

CCSDS_OMM_VERS = 2.0
CREATION_DATE  = 
ORIGINATOR     = 

OBJECT_NAME    = SL-16 R/B
OBJECT_ID      = 1998-045B
CENTER_NAME    = EARTH
REF_FRAME      = TEME
TIME_SYSTEM    = UTC
MEAN_ELEMENT_THEORY = SGP/SGP4

EPOCH          = 2026-01-24T03:28:39.733248
MEAN_MOTION    = 14.16186175
ECCENTRICITY   = .00051492
INCLINATION    = 71.0110
RA_OF_ASC_NODE = 275.2515
ARG_OF_PERICENTER = 95.2226
MEAN_ANOMALY   = 264.9485

EPHEMERIS_TYPE = 0
CLASSIFICATION_TYPE = U
NORAD_CAT_ID   = 25407
ELEMENT_SET_NO = 999
REV_AT_EPOCH   = 42079
BSTAR          = .14459318E-3
MEAN_MOTION_DOT = .239E-5
MEAN_MOTION_DDOT = 0

CCSDS_OMM_VERS = 2.0
CREATION_DATE  = 
ORIGINATOR     = 

OBJECT_NAME    = ISS (ZARYA)
OBJECT_ID      = 1998-067A
CENTER_NAME    = EARTH
REF_FRAME      = TEME
TIME_SYSTEM    = UTC
MEAN_ELEMENT_THEORY = SGP/SGP4

EPOCH          = 2026-01-23T17:19:58.588032
MEAN_MOTION    = 15.49596283
ECCENTRICITY   = .00077762
INCLINATION    = 51.6325
RA_OF_ASC_NODE = 294.6353
ARG_OF_PERICENTER = 51.0046
MEAN_ANOMALY   = 309.1634

EPHEMERIS_TYPE = 0
CLASSIFICATION_TYPE = U
NORAD_CAT_ID   = 25544
ELEMENT_SET_NO = 999
REV_AT_EPOCH   = 54936
BSTAR          = .30359733E-3
MEAN_MOTION_DOT = .16677E-3
MEAN_MOTION_DDOT = 0

CCSDS_OMM_VERS = 2.0
CREATION_DATE  = 
ORIGINATOR     = 

OBJECT_NAME    = CZ-4B R/B
OBJECT_ID      = 1999-025C
CENTER_NAME    = EARTH
REF_FRAME      = TEME
TIME_SYSTEM    = UTC
MEAN_ELEMENT_THEORY = SGP/SGP4

EPOCH          = 2026-01-24T08:25:38.410464
MEAN_MOTION    = 14.18255572
ECCENTRICITY   = .0038141
INCLINATION    = 98.6710
RA_OF_ASC_NODE = 69.6657
ARG_OF_PERICENTER = 111.9880
MEAN_ANOMALY   = 259.3307

EPHEMERIS_TYPE = 0
CLASSIFICATION_TYPE = U
NORAD_CAT_ID   = 25732
ELEMENT_SET_NO = 999
REV_AT_EPOCH   = 38188
BSTAR          = .85849E-4
MEAN_MOTION_DOT = .135E-5
MEAN_MOTION_DDOT = 0

CCSDS_OMM_VERS = 2.0
CREATION_DATE  = 
ORIGINATOR     = 

OBJECT_NAME    = OKEAN-O
OBJECT_ID      = 1999-039A
CENTER_NAME    = EARTH
REF_FRAME      = TEME
TIME_SYSTEM    = UTC
MEAN_ELEMENT_THEORY = SGP/SGP4

EPOCH          = 2026-01-24T04:11:06.457920
MEAN_MOTION    = 14.80254381
ECCENTRICITY   = .00018642
INCLINATION    = 97.9535
RA_OF_ASC_NODE = 84.4970
ARG_OF_PERICENTER = 99.8120
MEAN_ANOMALY   = 260.3303

EPHEMERIS_TYPE = 0
CLASSIFICATION_TYPE = U
NORAD_CAT_ID   = 25860
ELEMENT_SET_NO = 999
REV_AT_EPOCH   = 42780
BSTAR          = .23362524E-3
MEAN_MOTION_DOT = .1726E-4
MEAN_MOTION_DDOT = 0

CCSDS_OMM_VERS = 2.0
CREATION_DATE  = 
ORIGINATOR     = 

OBJECT_NAME    = SL-16 R/B
OBJECT_ID      = 1999-039B
CENTER_NAME    = EARTH
REF_FRAME      = TEME
TIME_SYSTEM    = UTC
MEAN_ELEMENT_THEORY = SGP/SGP4

EPOCH          = 2026-01-23T14:07:35.465088
MEAN_MOTION    = 14.81659748
ECCENTRICITY   = .00157932
INCLINATION    = 98.0062
RA_OF_ASC_NODE = 82.7303
ARG_OF_PERICENTER = 47.6102
MEAN_ANOMALY   = 312.6444

EPHEMERIS_TYPE = 0
CLASSIFICATION_TYPE = U
NORAD_CAT_ID   = 25861
ELEMENT_SET_NO = 999
REV_AT_EPOCH   = 43018
BSTAR          = .15761637E-3
MEAN_MOTION_DOT = .1189E-4
MEAN_MOTION_DDOT = 0

CCSDS_OMM_VERS = 2.0
CREATION_DATE  = 
ORIGINATOR     = 

OBJECT_NAME    = DELTA 2 R/B
OBJECT_ID      = 1999-041E
CENTER_NAME    = EARTH
REF_FRAME      = TEME
TIME_SYSTEM    = UTC
MEAN_ELEMENT_THEORY = SGP/SGP4

EPOCH          = 2026-01-24T09:47:20.171904
MEAN_MOTION    = 14.11621117
ECCENTRICITY   = .0502971
INCLINATION    = 51.7624
RA_OF_ASC_NODE = 118.1036
ARG_OF_PERICENTER = 217.5889
MEAN_ANOMALY   = 138.8875

EPHEMERIS_TYPE = 0
CLASSIFICATION_TYPE = U
NORAD_CAT_ID   = 25876
ELEMENT_SET_NO = 999
REV_AT_EPOCH   = 35677
BSTAR          = .72801E-3
MEAN_MOTION_DOT = .4297E-4
MEAN_MOTION_DDOT = 0

CCSDS_OMM_VERS = 2.0
CREATION_DATE  = 
ORIGINATOR     = 

OBJECT_NAME    = HELIOS 1B
OBJECT_ID      = 1999-064A
CENTER_NAME    = EARTH
REF_FRAME      = TEME
TIME_SYSTEM    = UTC
MEAN_ELEMENT_THEORY = SGP/SGP4

EPOCH          = 2026-01-24T10:54:40.889952
MEAN_MOTION    = 14.87495163
ECCENTRICITY   = .0001239
INCLINATION    = 98.1731
RA_OF_ASC_NODE = 285.3898
ARG_OF_PERICENTER = 134.4009
MEAN_ANOMALY   = 225.7308

EPHEMERIS_TYPE = 0
CLASSIFICATION_TYPE = U
NORAD_CAT_ID   = 25977
ELEMENT_SET_NO = 999
REV_AT_EPOCH   = 67868
BSTAR          = .39635E-3
MEAN_MOTION_DOT = .3535E-4
MEAN_MOTION_DDOT = 0

CCSDS_OMM_VERS = 2.0
CREATION_DATE  = 
ORIGINATOR     = 

OBJECT_NAME    = TERRA
OBJECT_ID      = 1999-068A
CENTER_NAME    = EARTH
REF_FRAME      = TEME
TIME_SYSTEM    = UTC
MEAN_ELEMENT_THEORY = SGP/SGP4

EPOCH          = 2026-01-24T11:34:10.649280
MEAN_MOTION    = 14.60961001
ECCENTRICITY   = .0001697
INCLINATION    = 97.9685
RA_OF_ASC_NODE = 79.5850
ARG_OF_PERICENTER = 356.2990
MEAN_ANOMALY   = 116.7282

EPHEMERIS_TYPE = 0
CLASSIFICATION_TYPE = U
NORAD_CAT_ID   = 25994
ELEMENT_SET_NO = 999
REV_AT_EPOCH   = 38862
BSTAR          = .192E-3
MEAN_MOTION_DOT = .896E-5
MEAN_MOTION_DDOT = 0

CCSDS_OMM_VERS = 2.0
CREATION_DATE  = 
ORIGINATOR     = 

OBJECT_NAME    = SL-16 R/B
OBJECT_ID      = 2000-006B
CENTER_NAME    = EARTH
REF_FRAME      = TEME
TIME_SYSTEM    = UTC
MEAN_ELEMENT_THEORY = SGP/SGP4

EPOCH          = 2026-01-24T03:34:08.868000
MEAN_MOTION    = 14.15813685
ECCENTRICITY   = .0018683
INCLINATION    = 71.0005
RA_OF_ASC_NODE = 191.4880
ARG_OF_PERICENTER = 251.5243
MEAN_ANOMALY   = 108.3850

EPHEMERIS_TYPE = 0
CLASSIFICATION_TYPE = U
NORAD_CAT_ID   = 26070
ELEMENT_SET_NO = 999
REV_AT_EPOCH   = 34225
BSTAR          = .13649143E-3
MEAN_MOTION_DOT = .221E-5
MEAN_MOTION_DDOT = 0

CCSDS_OMM_VERS = 2.0
CREATION_DATE  = 
ORIGINATOR     = 

OBJECT_NAME    = TITAN 4B R/B
OBJECT_ID      = 2000-047B
CENTER_NAME    = EARTH
REF_FRAME      = TEME
TIME_SYSTEM    = UTC
MEAN_ELEMENT_THEORY = SGP/SGP4

EPOCH          = 2026-01-24T10:19:46.541856
MEAN_MOTION    = 15.09160093
ECCENTRICITY   = .0036852
INCLINATION    = 67.9891
RA_OF_ASC_NODE = 164.9270
ARG_OF_PERICENTER = 90.7228
MEAN_ANOMALY   = 269.8143

EPHEMERIS_TYPE = 0
CLASSIFICATION_TYPE = U
NORAD_CAT_ID   = 26474
ELEMENT_SET_NO = 999
REV_AT_EPOCH   = 38623
BSTAR          = .43489E-3
MEAN_MOTION_DOT = .6904E-4
MEAN_MOTION_DDOT = 0

CCSDS_OMM_VERS = 2.0
CREATION_DATE  = 
ORIGINATOR     = 

OBJECT_NAME    = ENVISAT
OBJECT_ID      = 2002-009A
CENTER_NAME    = EARTH
REF_FRAME      = TEME
TIME_SYSTEM    = UTC
MEAN_ELEMENT_THEORY = SGP/SGP4

EPOCH          = 2026-01-24T11:14:58.752384
MEAN_MOTION    = 14.39018392
ECCENTRICITY   = .0001222
INCLINATION    = 98.3658
RA_OF_ASC_NODE = 339.1398
ARG_OF_PERICENTER = 91.8449
MEAN_ANOMALY   = 17.4071

EPHEMERIS_TYPE = 0
CLASSIFICATION_TYPE = U
NORAD_CAT_ID   = 27386
ELEMENT_SET_NO = 999
REV_AT_EPOCH   = 25281
BSTAR          = .10469E-3
MEAN_MOTION_DOT = .28E-5
MEAN_MOTION_DDOT = 0

